Name,Email,Address,City,Country,Postcode,NetWorth,Quote
Tucker,non.lobortis.quis@sit.org,"Ap #834-2789 Vulputate, Av.",Andernach,Curaçao,076421,€119773,"ipsum sodales purus, in molestie tortor nibh sit amet orci."
Edward,ornare.elit.elit@vulputatevelit.edu,2641 Felis Rd.,Koningshooikt,Israel,84418,€176269,nibh sit amet orci. Ut sagittis lobortis mauris. Suspendisse aliquet
Carter,augue.ac@Morbineque.com,"P.O. Box 169, 8905 Viverra. Street",Quinta Normal,Central African Republic,X9S 8M4,€168500,"leo. Vivamus nibh dolor, nonummy ac, feugiat non, lobortis quis,"
Nadine,id@egetmassaSuspendisse.edu,Ap #298-1487 Euismod Ave,Klin,Denmark,87966,€179175,sollicitudin orci sem eget massa. Suspendisse eleifend. Cras sed leo.
Emerson,vel@mi.net,597-925 Turpis Rd.,Gwangyang,Austria,5756,€185921,"mi pede, nonummy ut, molestie in, tempus eu, ligula. Aenean"
Xandra,felis@varius.org,"P.O. Box 640, 2932 Neque Street",Saint John,Morocco,41156-06028,€194813,"Nunc laoreet lectus quis massa. Mauris vestibulum, neque sed dictum"
Kieran,arcu@ac.com,"P.O. Box 805, 1162 Venenatis Rd.",Oostkerke,Antigua and Barbuda,121511,€182936,"quis, pede. Suspendisse dui. Fusce diam nunc, ullamcorper eu, euismod"
Gavin,Mauris@Nullafacilisis.com,Ap #518-2528 Mauris Rd.,Saavedra,United States,21027,€156581,"justo nec ante. Maecenas mi felis, adipiscing fringilla, porttitor vulputate,"
Noelle,Cras.eget@lacuspedesagittis.ca,"P.O. Box 259, 398 Nunc Road",Ozyory,Marshall Islands,21616,€103711,"augue, eu tempor erat neque non quam. Pellentesque habitant morbi"
Ocean,commodo.tincidunt.nibh@ipsum.com,441-740 Rhoncus. Rd.,Vichuquén,Azerbaijan,Z2648,€127286,Sed nec metus facilisis lorem tristique aliquet. Phasellus fermentum convallis
Rafael,placerat.augue.Sed@augueeu.edu,Ap #715-8520 Morbi St.,Balıkesir,New Zealand,293708,€104129,amet risus. Donec egestas. Aliquam nec enim. Nunc ut erat.
Benjamin,ut.nulla.Cras@lacusNullatincidunt.net,7585 Est. St.,Colleretto Castelnuovo,Uruguay,21344,€113958,"eu erat semper rutrum. Fusce dolor quam, elementum at, egestas"
Zephr,Nam@scelerisqueduiSuspendisse.edu,Ap #230-3795 Est. St.,Kapolei,Ethiopia,943191,€176073,"libero lacus, varius et, euismod et, commodo at, libero. Morbi"
Lael,morbi@vitaepurus.edu,"6832 Et, Road",Mandya,Swaziland,88223,€184939,molestie tellus. Aenean egestas hendrerit neque. In ornare sagittis felis.
Caldwell,Praesent@elitpretium.net,"P.O. Box 863, 1283 Consectetuer Avenue",Upplands Väsby,Christmas Island,792688,€103981,"Phasellus dolor elit, pellentesque a, facilisis non, bibendum sed, est."
Latifah,mus.Proin@sapien.org,1283 Sem Road,Columbus,Timor-Leste,EV90 0SO,€106537,vel sapien imperdiet ornare. In faucibus. Morbi vehicula. Pellentesque tincidunt
Tyler,ac@mauris.edu,"Ap #670-6202 Montes, St.",Mayerthorpe,Portugal,4144,€179087,"metus urna convallis erat, eget tincidunt dui augue eu tellus."
Sharon,Fusce.diam.nunc@justo.ca,"Ap #891-9816 Non, Rd.",Oss,Syria,212508,€159645,mus. Proin vel arcu eu odio tristique pharetra. Quisque ac
Hyatt,sodales.purus@sedtortorInteger.co.uk,"P.O. Box 108, 243 Quisque St.",New Haven,Macao,844662,€114636,"eget metus eu erat semper rutrum. Fusce dolor quam, elementum"
Harper,Cras.lorem.lorem@Donecporttitortellus.co.uk,"P.O. Box 494, 1890 Augue St.",Newbury,Guinea,54-075,€196011,"porttitor tellus non magna. Nam ligula elit, pretium et, rutrum"
Janna,Proin@euultrices.net,"Ap #885-8372 Tincidunt, Road",Leicester,Albania,10611,€132204,"tempor lorem, eget mollis lectus pede et risus. Quisque libero"
Zachery,elit.erat@eulacus.net,"9385 Ut, St.",Krishnanagar,Mali,84-602,€182781,odio. Phasellus at augue id ante dictum cursus. Nunc mauris
Larissa,convallis.ante@temporbibendum.org,543-1985 Aliquam Av.,Armadale,Suriname,5667 DQ,€177443,"nibh lacinia orci, consectetuer euismod est arcu ac orci. Ut"
Jesse,eget@Vestibulumaccumsan.net,"P.O. Box 564, 1795 Augue Road",SŽlange,Iceland,57434,€147500,et pede. Nunc sed orci lobortis augue scelerisque mollis. Phasellus
Macy,ridiculus.mus.Aenean@velitjusto.ca,"P.O. Box 420, 7225 Tincidunt. Avenue",Minneapolis,Mexico,68012,€197017,"dolor, tempus non, lacinia at, iaculis quis, pede. Praesent eu"
Sierra,posuere.cubilia.Curae@pede.com,1851 Et Ave,Palencia,Guam,27537,€107567,amet lorem semper auctor. Mauris vel turpis. Aliquam adipiscing lobortis
Amena,porttitor.interdum.Sed@lorem.ca,271-4977 Velit. Av.,Strongoli,Curaçao,90564,€142281,"Mauris vel turpis. Aliquam adipiscing lobortis risus. In mi pede,"
Tallulah,cursus.luctus@sitametornare.edu,5916 Nisl. Av.,Baarle-Hertog,Czech Republic,9579,€121023,"at, iaculis quis, pede. Praesent eu dui. Cum sociis natoque"
Taylor,ut.sem@rutrumnon.co.uk,"P.O. Box 912, 8350 Nulla Ave",Forgaria nel Friuli,Botswana,KO6O 9CC,€141780,pretium neque. Morbi quis urna. Nunc quis arcu vel quam
Ross,tellus.non.magna@nunc.ca,"454-8887 Nec, Rd.",Wiener Neustadt,Burundi,37642-474,€124315,"mollis nec, cursus a, enim. Suspendisse aliquet, sem ut cursus"
Joelle,ipsum.dolor@mattis.org,8287 Volutpat. Street,Sikar,Russian Federation,4250,€125600,"Fusce diam nunc, ullamcorper eu, euismod ac, fermentum vel, mauris."
Dillon,justo@ac.co.uk,976-5013 Sagittis. Rd.,Juneau,Montenegro,8880,€163999,"sit amet luctus vulputate, nisi sem semper erat, in consectetuer"
Alexander,ligula.consectetuer.rhoncus@faucibusid.co.uk,Ap #218-3678 Arcu. St.,Itagüí,French Guiana,95238,€115312,"condimentum eget, volutpat ornare, facilisis eget, ipsum. Donec sollicitudin adipiscing"
Alexander,tempor@lectus.co.uk,"P.O. Box 649, 5275 Elit Rd.",Chiquinquirá,Panama,699860,€129742,"Cras dolor dolor, tempus non, lacinia at, iaculis quis, pede."
Hedy,lacus@Aeneansedpede.net,3822 Nisi. Rd.,Grand-Manil,Sudan,59433,€191481,in consectetuer ipsum nunc id enim. Curabitur massa. Vestibulum accumsan
Mara,blandit.Nam.nulla@sodalesnisimagna.edu,"276-5374 Eget, St.",Bastia Umbra,Tokelau,22398,€188718,"ac metus vitae velit egestas lacinia. Sed congue, elit sed"
Kevyn,hendrerit@nulla.com,Ap #892-9731 Ornare Ave,Juiz de Fora,Malaysia,17021,€188075,"dolor. Fusce feugiat. Lorem ipsum dolor sit amet, consectetuer adipiscing"
Cruz,iaculis@eunullaat.ca,"6290 Urna, Av.",Erlangen,Italy,1104,€117595,"metus. In lorem. Donec elementum, lorem ut aliquam iaculis, lacus"
Kieran,arcu@metusIn.ca,8105 Nunc Rd.,Lakeland County,Montserrat,73006,€174895,mollis. Integer tincidunt aliquam arcu. Aliquam ultrices iaculis odio. Nam
Sean,tincidunt.neque@dolorFusce.ca,"P.O. Box 869, 8155 Cursus Av.",Baden-Baden,"Virgin Islands, British",E3V 6Z4,€153226,arcu. Morbi sit amet massa. Quisque porttitor eros nec tellus.
Zeph,augue.ac@fringillaeuismod.org,"Ap #901-6456 Dui, Av.",Woodlands County,Mali,J0A 3Y9,€191701,arcu. Sed eu nibh vulputate mauris sagittis placerat. Cras dictum
Hilary,Nam.porttitor@vulputate.ca,"P.O. Box 881, 2066 Mollis. Rd.",Sandy,India,537580,€199792,"commodo ipsum. Suspendisse non leo. Vivamus nibh dolor, nonummy ac,"
Simon,in.lobortis.tellus@nonhendreritid.org,Ap #305-8723 Dictum Street,Oudenburg,New Caledonia,95429,€183506,"ante lectus convallis est, vitae sodales nisi magna sed dui."
Marsden,metus@vitae.org,1902 Lacus. Street,Muridke,Poland,811330,€127213,"molestie pharetra nibh. Aliquam ornare, libero at auctor ullamcorper, nisl"
Blossom,tristique@necenim.net,"P.O. Box 675, 2567 Neque. Avenue",Cape Breton Island,Puerto Rico,IZ61 1VH,€149075,"magna, malesuada vel, convallis in, cursus et, eros. Proin ultrices."
Eden,mi@amagna.edu,534-4039 Vestibulum. Avenue,Milnathort,"Virgin Islands, United States",302302,€179015,"luctus sit amet, faucibus ut, nulla. Cras eu tellus eu"
Alexis,hymenaeos.Mauris@mi.edu,"6046 Pede, Street",Jacobabad,Barbados,788722,€172083,"facilisis eget, ipsum. Donec sollicitudin adipiscing ligula. Aenean gravida nunc"
Drake,ornare.placerat.orci@nequeseddictum.co.uk,511-2621 Donec St.,Mundare,Åland Islands,4687,€126943,Nullam lobortis quam a felis ullamcorper viverra. Maecenas iaculis aliquet
Phelan,quam.quis.diam@Integer.ca,Ap #324-4360 Risus Street,Harrisburg,Somalia,69028,€101210,vestibulum. Mauris magna. Duis dignissim tempor arcu. Vestibulum ut eros
Penelope,ac@Nullasemper.org,443-2639 Tempus Street,Lummen,Philippines,33549,€138061,gravida sagittis. Duis gravida. Praesent eu nulla at sem molestie
Patrick,augue.malesuada@utaliquamiaculis.co.uk,Ap #171-3827 Lectus St.,Schriek,French Southern Territories,76-892,€103317,eu odio tristique pharetra. Quisque ac libero nec ligula consectetuer
Ulla,cursus@velpede.co.uk,8668 Rhoncus Ave,Driekapellen,Luxembourg,29892,€173586,Sed et libero. Proin mi. Aliquam gravida mauris ut mi.
Elaine,ipsum.primis@acmetus.co.uk,259-9402 Pulvinar Ave,Impe,Chad,1199,€115568,arcu. Sed eu nibh vulputate mauris sagittis placerat. Cras dictum
Nathan,tellus.Suspendisse@bibendum.net,"P.O. Box 402, 7466 Pellentesque Rd.",Loverval,Vanuatu,35031,€121283,"convallis est, vitae sodales nisi magna sed dui. Fusce aliquam,"
Allistair,egestas.Aliquam@velit.org,3723 Odio Rd.,Bruderheim,Cook Islands,453977,€174197,"porttitor interdum. Sed auctor odio a purus. Duis elementum, dui"
Lael,Praesent@tempusnonlacinia.net,319-560 Molestie Av.,Merksplas,Viet Nam,11905,€153238,eu sem. Pellentesque ut ipsum ac mi eleifend egestas. Sed
Austin,urna@Aeneanmassa.ca,Ap #954-832 Fermentum Street,St. Albert,Malawi,8638,€113688,"id, erat. Etiam vestibulum massa rutrum magna. Cras convallis convallis"
Kirsten,et.ultrices.posuere@indolorFusce.org,"P.O. Box 869, 4862 Tellus St.",Merseburg,Bulgaria,947061,€115082,"imperdiet dictum magna. Ut tincidunt orci quis lectus. Nullam suscipit,"
Hanae,odio@utodiovel.net,Ap #776-4096 Enim. Ave,Hard,Thailand,52403,€177764,quis diam luctus lobortis. Class aptent taciti sociosqu ad litora
Akeem,nisi@Vestibulumante.edu,Ap #150-7830 Eu Road,Lauw,Curaçao,79397,€109575,"Aliquam auctor, velit eget laoreet posuere, enim nisl elementum purus,"
Genevieve,congue.elit.sed@lobortismaurisSuspendisse.co.uk,240 Ac Road,Asso,"Virgin Islands, United States",5915,€173767,imperdiet ornare. In faucibus. Morbi vehicula. Pellentesque tincidunt tempus risus.
Isaac,risus.Donec@Sedetlibero.edu,"P.O. Box 285, 4869 Ultrices Ave",Wodonga,Guinea-Bissau,29214,€135489,nunc interdum feugiat. Sed nec metus facilisis lorem tristique aliquet.
Juliet,penatibus.et@Maurisblandit.com,824-1355 Nunc Ave,Grand-Reng,United States Minor Outlying Islands,71936,€104879,"non, lobortis quis, pede. Suspendisse dui. Fusce diam nunc, ullamcorper"
Jesse,magna@vitaesemperegestas.co.uk,"142-3536 At, Rd.",Aubagne,Isle of Man,Z8481,€182043,neque et nunc. Quisque ornare tortor at risus. Nunc ac
Claire,commodo.tincidunt.nibh@ultricesposuere.net,9684 Semper St.,Plato,Western Sahara,36534,€169497,congue. In scelerisque scelerisque dui. Suspendisse ac metus vitae velit
Riley,ac.turpis.egestas@sempertellusid.co.uk,Ap #384-1779 Ornare St.,Silchar,Pakistan,51013,€153914,ornare lectus justo eu arcu. Morbi sit amet massa. Quisque
Kyra,vel@Donecnibh.edu,"P.O. Box 987, 3340 Orci St.",Pöttsching,Bulgaria,340012,€104552,"accumsan laoreet ipsum. Curabitur consequat, lectus sit amet luctus vulputate,"
Kay,enim.gravida.sit@elementum.org,Ap #661-1925 Interdum St.,New Glasgow,Tokelau,99315,€101412,"metus eu erat semper rutrum. Fusce dolor quam, elementum at,"
Honorato,Sed.id.risus@Donectemporest.edu,"P.O. Box 480, 463 Lorem Avenue",Izel,Mexico,21150-99878,€148805,"consectetuer adipiscing elit. Etiam laoreet, libero et tristique pellentesque, tellus"
Gannon,accumsan.convallis@tempor.net,792-3914 Donec Ave,Cochamó,Vanuatu,Z18 9TZ,€169311,"vel, vulputate eu, odio. Phasellus at augue id ante dictum"
Jocelyn,justo.sit.amet@aultriciesadipiscing.com,"P.O. Box 153, 9835 Malesuada. Ave",Palmerston North,Malawi,89385,€110752,Vivamus nisi. Mauris nulla. Integer urna. Vivamus molestie dapibus ligula.
Arden,Morbi.metus.Vivamus@nonante.net,567-7903 A Rd.,Grand Island,South Sudan,07-799,€168869,"justo. Proin non massa non ante bibendum ullamcorper. Duis cursus,"
Amery,lacus.Nulla.tincidunt@aodiosemper.org,9935 Nunc Rd.,Ebenthal in Kärnten,Poland,118714,€153883,amet lorem semper auctor. Mauris vel turpis. Aliquam adipiscing lobortis
Rhonda,Nullam@Etiam.net,2142 Sodales Ave,SŽlange,Tunisia,066975,€190627,"rutrum eu, ultrices sit amet, risus. Donec nibh enim, gravida"
Mira,aliquet.magna@eratVivamus.org,Ap #643-355 Feugiat Rd.,Sundrie,Mexico,22058,€134046,"Duis mi enim, condimentum eget, volutpat ornare, facilisis eget, ipsum."
Lillian,sed@Inatpede.edu,Ap #979-7980 Tincidunt Rd.,Guwahati,Faroe Islands,71088,€174343,"auctor quis, tristique ac, eleifend vitae, erat. Vivamus nisi. Mauris"
Kenyon,nec@justoProin.edu,"P.O. Box 932, 9684 Dis St.",Vladimir,Serbia,1733,€102526,"tellus. Suspendisse sed dolor. Fusce mi lorem, vehicula et, rutrum"
Alan,luctus@egestasa.ca,Ap #275-9729 Magna. Ave,San Leucio del Sannio,Ecuador,M7X 9PP,€197135,"lectus, a sollicitudin orci sem eget massa. Suspendisse eleifend. Cras"
Paki,ligula.Aliquam@tellusNunc.edu,5224 Dictum Av.,Onitsha,Liechtenstein,202746,€161360,"velit eget laoreet posuere, enim nisl elementum purus, accumsan interdum"
Martena,egestas@Donec.ca,Ap #343-3849 Cras Av.,Kendal,South Africa,5798,€129797,"sed dictum eleifend, nunc risus varius orci, in consequat enim"
Stacy,odio.Etiam@imperdieteratnonummy.org,8941 Facilisis Rd.,Dawson Creek,Oman,88160,€122636,"nisl sem, consequat nec, mollis vitae, posuere at, velit. Cras"
Arthur,cursus@arcuCurabitur.org,Ap #822-631 Tincidunt Rd.,St. Petersburg,Uruguay,735288,€118919,orci. Donec nibh. Quisque nonummy ipsum non arcu. Vivamus sit
Cain,eu.lacus.Quisque@nisl.com,Ap #468-5749 Ultricies Av.,Shimla,San Marino,01128-901,€154062,"amet diam eu dolor egestas rhoncus. Proin nisl sem, consequat"
Hilary,et@ipsumSuspendisse.edu,5666 Cursus Rd.,Ulhasnagar,Niue,810099,€154241,Duis sit amet diam eu dolor egestas rhoncus. Proin nisl
Gloria,amet.diam.eu@purusin.net,"3660 Mauris, Road",Tamines,Mauritius,18620-41418,€112241,"pretium aliquet, metus urna convallis erat, eget tincidunt dui augue"
Raya,quam.quis.diam@pedenecante.org,548-7011 Risus. Rd.,Zwickau,Solomon Islands,66699,€106871,"neque sed sem egestas blandit. Nam nulla magna, malesuada vel,"
Kim,fermentum@quislectusNullam.co.uk,"Ap #312-9028 Eu, Road",Daman,Macao,S8Y 7K9,€151219,"egestas rhoncus. Proin nisl sem, consequat nec, mollis vitae, posuere"
Vanna,erat.in@ac.net,819-7062 Cras Street,Baton Rouge,Nepal,11998,€181809,"convallis ligula. Donec luctus aliquet odio. Etiam ligula tortor, dictum"
Sandra,per.conubia@malesuadaaugue.org,Ap #404-3107 Amet St.,Saumur,Turkmenistan,93257-06668,€164162,"dui quis accumsan convallis, ante lectus convallis est, vitae sodales"
Emily,neque.et@orci.edu,703-9877 Morbi St.,Pietrarubbia,"Saint Helena, Ascension and Tristan da Cunha",456614,€165351,"pellentesque a, facilisis non, bibendum sed, est. Nunc laoreet lectus"
Aline,ac.mattis@Duis.net,"P.O. Box 687, 4897 Augue Ave",San Benedetto del Tronto,Serbia,201491,€107399,Sed et libero. Proin mi. Aliquam gravida mauris ut mi.
Kiayada,orci.luctus@semperauctorMauris.com,"P.O. Box 882, 3668 In Av.",Fairbanks,Solomon Islands,15308-37017,€193722,dui nec urna suscipit nonummy. Fusce fermentum fermentum arcu. Vestibulum
Lenore,Sed@fringilla.com,Ap #620-7792 Cras Rd.,l'Escaillre,Côte D'Ivoire (Ivory Coast),1587,€109141,Praesent interdum ligula eu enim. Etiam imperdiet dictum magna. Ut
Kai,purus.accumsan@ligula.edu,220-9005 Sed Ave,Wismar,Dominica,63966,€144055,"iaculis aliquet diam. Sed diam lorem, auctor quis, tristique ac,"
Trevor,sociis@gravidamauris.org,633-211 Cursus Street,Vertou,Western Sahara,42220-36569,€183643,"a, scelerisque sed, sapien. Nunc pulvinar arcu et pede. Nunc"
Petra,Fusce@semperegestas.ca,"P.O. Box 857, 9800 At Rd.",Grande Prairie,South Africa,50904,€161206,"facilisis non, bibendum sed, est. Nunc laoreet lectus quis massa."
Ian,ornare.tortor@CraspellentesqueSed.ca,832-5464 Vulputate Rd.,Salt Spring Island,United Kingdom (Great Britain),61445,€190834,eu tempor erat neque non quam. Pellentesque habitant morbi tristique
Shaeleigh,Maecenas@ut.edu,Ap #480-2166 Enim Ave,Thionville,Venezuela,1759,€131985,"libero. Morbi accumsan laoreet ipsum. Curabitur consequat, lectus sit amet"
Aline,consequat.purus@adipiscing.net,4470 Nulla Avenue,Salerno,Comoros,543931,€136518,"sociis natoque penatibus et magnis dis parturient montes, nascetur ridiculus"
Darius,accumsan.sed.facilisis@felisadipiscingfringilla.net,"P.O. Box 148, 4779 Adipiscing St.",Warspite,Yemen,6383 FX,€129695,"ut lacus. Nulla tincidunt, neque vitae semper egestas, urna justo"